[{"OBJECT_NAME":"STARLINK-34802","OBJECT_ID":"2025-165M","EPOCH":"2026-03-09T17:13:32.863008","MEAN_MOTION":15.05652759,"ECCENTRICITY":6.401e-5,"INCLINATION":97.6015,"RA_OF_ASC_NODE":147.2402,"ARG_OF_PERICENTER":228.9415,"MEAN_ANOMALY":131.1756,"EPHEMERIS_TYPE":0,"CLASSIFICATION_TYPE":"U","NORAD_CAT_ID":65067,"ELEMENT_SET_NO":999,"REV_AT_EPOCH":3479,"BSTAR":0.00028862988,"MEAN_MOTION_DOT":4.107e-5,"MEAN_MOTION_DDOT":0},{"OBJECT_NAME":"IRIDIUM 33 DEB","OBJECT_ID":"1997-051QE","EPOCH":"2026-03-07T09:35:18.798432","MEAN_MOTION":15.07266806,"ECCENTRICITY":0.0013423,"INCLINATION":86.3519,"RA_OF_ASC_NODE":312.8742,"ARG_OF_PERICENTER":171.2899,"MEAN_ANOMALY":188.8573,"EPHEMERIS_TYPE":0,"CLASSIFICATION_TYPE":"U","NORAD_CAT_ID":35484,"ELEMENT_SET_NO":999,"REV_AT_EPOCH":63287,"BSTAR":0.0040001,"MEAN_MOTION_DOT":0.00060878,"MEAN_MOTION_DDOT":0}]
